STARLINK-33691          
1 63462U 25070C   26068.57971455  .00033652  00000+0  12258-2 0  9998
2 63462  43.0015 260.0728 0002174 299.0633  61.0000 15.27606595 52917
2025-155V               
1 64895U 25155V   26068.85787115  .00013705  00000+0  51002-3 0  9990
2 64895  97.4485  37.2490 0008035 152.8264 207.3397 15.27583301 65579
